start=new Date('2021-09-03T00:00:00.000Z').valueOf();
sats=[{"LAUNCH_DATE":"2021-01-20","RCS_SIZE":"LARGE","GP_ID":"183964884","OBJECT_ID":"2021-005N","REV_AT_EPOCH":"3583","ECCENTRICITY":"0.00007990","ELEMENT_SET_NO":"999","CENTER_NAME":"EARTH","DECAY_DATE":null,"EPHEMERIS_TYPE":"0","MEAN_ANOMALY":"351.2665","EPOCH":"2021-09-02T11:16:18.903936","APOAPSIS":"547.802","PERIAPSIS":"546.696","SEMIMAJOR_AXIS":"6925.384","CLASSIFICATION_TYPE":"U","TIME_SYSTEM":"UTC","ARG_OF_PERICENTER":"8.8338","FILE":"3107615","BSTAR":"0.00006769600000","TLE_LINE2":"2 47361  53.0524 235.2513 0000799   8.8338 351.2665 15.06388453 35838","OBJECT_TYPE":"PAYLOAD","INCLINATION":"53.0524","MEAN_MOTION_DDOT":"0.0000000000000","REF_FRAME":"TEME","SITE":"AFETR","TLE_LINE1":"1 47361U 21005N   21245.46966324  .00000727  00000-0  67696-4 0  9997","NORAD_CAT_ID":"47361","MEAN_ELEMENT_THEORY":"SGP4","MEAN_MOTION":"15.06388453","PERIOD":"95.593","MEAN_MOTION_DOT":"0.00000727","COUNTRY_CODE":"US","OBJECT_NAME":"STARLINK-2071","RA_OF_ASC_NODE":"235.2513"},{"INCLINATION":"53.0534","TLE_LINE2":"2 47362  53.0534 263.8733 0000916  70.8799 289.2289 15.06389884 34517","OBJECT_TYPE":"PAYLOAD","ARG_OF_PERICENTER":"70.8799","FILE":"3107724","BSTAR":"-0.00007890000000","REF_FRAME":"TEME","MEAN_MOTION_DDOT":"0.0000000000000","SITE":"AFETR","MEAN_ELEMENT_THEORY":"SGP4","NORAD_CAT_ID":"47362","TLE_LINE1":"1 47362U 21005P   21245.78020108 -.00001456  00000-0 -78900-4 0  9996","MEAN_MOTION_DOT":"-0.00001456","MEAN_MOTION":"15.06389884","PERIOD":"95.593","OBJECT_NAME":"STARLINK-2076","COUNTRY_CODE":"US","RA_OF_ASC_NODE":"263.8733","LAUNCH_DATE":"2021-01-20","ECCENTRICITY":"0.00009160","GP_ID":"183988739","REV_AT_EPOCH":"3451","RCS_SIZE":"LARGE","OBJECT_ID":"2021-005P","CENTER_NAME":"EARTH","ELEMENT_SET_NO":"999","EPOCH":"2021-09-02T18:43:29.373312","MEAN_ANOMALY":"289.2289","DECAY_DATE":null,"EPHEMERIS_TYPE":"0","TIME_SYSTEM":"UTC","PERIAPSIS":"546.610","APOAPSIS":"547.879","CLASSIFICATION_TYPE":"U","SEMIMAJOR_AXIS":"6925.380"},{"MEAN_MOTION_DOT":"0.00000539","PERIOD":"95.593","MEAN_MOTION":"15.06387132","OBJECT_NAME":"STARLINK-2077","COUNTRY_CODE":"US","RA_OF_ASC_NODE":"263.8532","INCLINATION":"53.0530","TLE_LINE2":"2 47363  53.0530 263.8532 0001000  77.3449 282.7651 15.06387132 34515","OBJECT_TYPE":"PAYLOAD","BSTAR":"0.00005508200000","FILE":"3107724","ARG_OF_PERICENTER":"77.3449","MEAN_MOTION_DDOT":"0.0000000000000","REF_FRAME":"TEME","SITE":"AFETR","MEAN_ELEMENT_THEORY":"SGP4","NORAD_CAT_ID":"47363","TLE_LINE1":"1 47363U 21005Q   21245.78390625  .00000539  00000-0  55082-4 0  9996","CENTER_NAME":"EARTH","ELEMENT_SET_NO":"999","EPOCH":"2021-09-02T18:48:49.500000","MEAN_ANOMALY":"282.7651","DECAY_DATE":null,"EPHEMERIS_TYPE":"0","TIME_SYSTEM":"UTC","PERIAPSIS":"546.560","CLASSIFICATION_TYPE":"U","APOAPSIS":"547.946","SEMIMAJOR_AXIS":"6925.388","LAUNCH_DATE":"2021-01-20","ECCENTRICITY":"0.00010000","REV_AT_EPOCH":"3451","GP_ID":"183989490","RCS_SIZE":"LARGE","OBJECT_ID":"2021-005Q"},{"PERIAPSIS":"546.189","APOAPSIS":"548.300","SEMIMAJOR_AXIS":"6925.380","CLASSIFICATION_TYPE":"U","TIME_SYSTEM":"UTC","DECAY_DATE":null,"EPHEMERIS_TYPE":"0","EPOCH":"2021-09-02T18:01:03.574848","MEAN_ANOMALY":"295.7984","ELEMENT_SET_NO":"999","CENTER_NAME":"EARTH","GP_ID":"183987738","RCS_SIZE":"LARGE","OBJECT_ID":"2021-005R","REV_AT_EPOCH":"3450","ECCENTRICITY":"0.00015240","LAUNCH_DATE":"2021-01-20","RA_OF_ASC_NODE":"263.9820","COUNTRY_CODE":"US","OBJECT_NAME":"STARLINK-2079","MEAN_MOTION":"15.06389788","PERIOD":"95.593","MEAN_MOTION_DOT":"0.00002603","TLE_LINE1":"1 47364U 21005R   21245.75073582  .00002603  00000-0  19366-3 0  9992","NORAD_CAT_ID":"47364","MEAN_ELEMENT_THEORY":"SGP4","SITE":"AFETR","REF_FRAME":"TEME","MEAN_MOTION_DDOT":"0.0000000000000","FILE":"3107724","ARG_OF_PERICENTER":"64.3163","BSTAR":"0.00019366000000","TLE_LINE2":"2 47364  53.0538 263.9820 0001524  64.3163 295.7984 15.06389788 34506","OBJECT_TYPE":"PAYLOAD","INCLINATION":"53.0538"},{"APOAPSIS":"351.290","PERIAPSIS":"347.984","SEMIMAJOR_AXIS":"6727.772","CLASSIFICATION_TYPE":"U","TIME_SYSTEM":"UTC","EPOCH":"2021-09-02T05:48:13.184064","MEAN_ANOMALY":"338.7322","EPHEMERIS_TYPE":"0","DECAY_DATE":null,"CENTER_NAME":"EARTH","ELEMENT_SET_NO":"999","RCS_SIZE":"LARGE","GP_ID":"183961276","REV_AT_EPOCH":"3554","OBJECT_ID":"2021-005S","ECCENTRICITY":"0.00024570","LAUNCH_DATE":"2021-01-20","RA_OF_ASC_NODE":"186.9972","COUNTRY_CODE":"US","OBJECT_NAME":"STARLINK-2080","MEAN_MOTION_DOT":"0.00032122","MEAN_MOTION":"15.73243178","PERIOD":"91.531","MEAN_ELEMENT_THEORY":"SGP4","TLE_LINE1":"1 47365U 21005S   21245.24181926  .00032122  00000-0  23193-3 0  9991","NORAD_CAT_ID":"47365","SITE":"AFETR","REF_FRAME":"TEME","MEAN_MOTION_DDOT":"0.0000000000000","TLE_LINE2":"2 47365  53.0507 186.9972 0002457  21.3798 338.7322 15.73243178 35543","INCLINATION":"53.0507","OBJECT_TYPE":"PAYLOAD","ARG_OF_PERICENTER":"21.3798","FILE":"3107538","BSTAR":"0.00023193000000"},{"DECAY_DATE":null,"EPHEMERIS_TYPE":"0","MEAN_ANOMALY":"293.9844","EPOCH":"2021-09-02T17:50:24.919872","ELEMENT_SET_NO":"999","CENTER_NAME":"EARTH","PERIAPSIS":"546.749","APOAPSIS":"547.727","CLASSIFICATION_TYPE":"U","SEMIMAJOR_AXIS":"6925.373","TIME_SYSTEM":"UTC","RCS_SIZE":"LARGE","GP_ID":"183989240","REV_AT_EPOCH":"3450","OBJECT_ID":"2021-005T","ECCENTRICITY":"0.00007060","LAUNCH_DATE":"2021-01-20","MEAN_MOTION":"15.06391987","PERIOD":"95.593","MEAN_MOTION_DOT":"0.00000656","RA_OF_ASC_NODE":"264.0173","COUNTRY_CODE":"US","OBJECT_NAME":"STARLINK-2081","MEAN_MOTION_DDOT":"0.0000000000000","REF_FRAME":"TEME","BSTAR":"0.00006292100000","FILE":"3107724","ARG_OF_PERICENTER":"66.1219","INCLINATION":"53.0552","TLE_LINE2":"2 47366  53.0552 264.0173 0000706  66.1219 293.9844 15.06391987 34509","OBJECT_TYPE":"PAYLOAD","TLE_LINE1":"1 47366U 21005T   21245.74334398  .00000656  00000-0  62921-4 0  9990","NORAD_CAT_ID":"47366","MEAN_ELEMENT_THEORY":"SGP4","SITE":"AFETR"},{"PERIAPSIS":"546.609","SEMIMAJOR_AXIS":"6925.365","APOAPSIS":"547.851","CLASSIFICATION_TYPE":"U","TIME_SYSTEM":"UTC","ELEMENT_SET_NO":"999","CENTER_NAME":"EARTH","EPHEMERIS_TYPE":"0","DECAY_DATE":null,"MEAN_ANOMALY":"302.5506","EPOCH":"2021-09-02T18:27:35.104320","LAUNCH_DATE":"2021-01-20","GP_ID":"183988990","OBJECT_ID":"2021-005U","RCS_SIZE":"LARGE","REV_AT_EPOCH":"3451","ECCENTRICITY":"0.00008970","COUNTRY_CODE":"US","OBJECT_NAME":"STARLINK-2082","RA_OF_ASC_NODE":"263.9244","MEAN_MOTION":"15.06394683","PERIOD":"95.592","MEAN_MOTION_DOT":"0.00003007","SITE":"AFETR","TLE_LINE1":"1 47367U 21005U   21245.76915630  .00003007  00000-0  22068-3 0  9997","NORAD_CAT_ID":"47367","MEAN_ELEMENT_THEORY":"SGP4","BSTAR":"0.00022068000000","FILE":"3107724","ARG_OF_PERICENTER":"57.5570","OBJECT_TYPE":"PAYLOAD","TLE_LINE2":"2 47367  53.0537 263.9244 0000897  57.5570 302.5506 15.06394683 34514","INCLINATION":"53.0537","REF_FRAME":"TEME","MEAN_MOTION_DDOT":"0.0000000000000"},{"EPHEMERIS_TYPE":"0","DECAY_DATE":null,"EPOCH":"2021-09-02T18:16:59.448288","MEAN_ANOMALY":"275.5731","ELEMENT_SET_NO":"999","CENTER_NAME":"EARTH","TIME_SYSTEM":"UTC","PERIAPSIS":"546.521","CLASSIFICATION_TYPE":"U","APOAPSIS":"548.018","SEMIMAJOR_AXIS":"6925.404","ECCENTRICITY":"0.00010810","RCS_SIZE":"LARGE","GP_ID":"183988239","REV_AT_EPOCH":"3451","OBJECT_ID":"2021-005V","LAUNCH_DATE":"2021-01-20","MEAN_MOTION":"15.06381803","PERIOD":"95.593","MEAN_MOTION_DOT":"0.00000565","RA_OF_ASC_NODE":"263.9535","OBJECT_NAME":"STARLINK-2084","COUNTRY_CODE":"US","REF_FRAME":"TEME","MEAN_MOTION_DDOT":"0.0000000000000","BSTAR":"0.00005684200000","FILE":"3107724","ARG_OF_PERICENTER":"84.5381","TLE_LINE2":"2 47368  53.0531 263.9535 0001081  84.5381 275.5731 15.06381803 34517","INCLINATION":"53.0531","OBJECT_TYPE":"PAYLOAD","NORAD_CAT_ID":"47368","TLE_LINE1":"1 47368U 21005V   21245.76179917  .00000565  00000-0  56842-4 0  9992","MEAN_ELEMENT_THEORY":"SGP4","SITE":"AFETR"},{"BSTAR":"-0.00003126300000","FILE":"3107724","ARG_OF_PERICENTER":"59.0767","INCLINATION":"53.0561","TLE_LINE2":"2 47369  53.0561 243.9166 0000845  59.0767 301.0305 15.06391990 34791","OBJECT_TYPE":"PAYLOAD","MEAN_MOTION_DDOT":"0.0000000000000","REF_FRAME":"TEME","SITE":"AFETR","TLE_LINE1":"1 47369U 21005W   21245.76730036 -.00000747  00000-0 -31263-4 0  9992","NORAD_CAT_ID":"47369","MEAN_ELEMENT_THEORY":"SGP4","MEAN_MOTION":"15.06391990","PERIOD":"95.593","MEAN_MOTION_DOT":"-0.00000747","COUNTRY_CODE":"US","OBJECT_NAME":"STARLINK-2085","RA_OF_ASC_NODE":"243.9166","LAUNCH_DATE":"2021-01-20","OBJECT_ID":"2021-005W","GP_ID":"183988489","RCS_SIZE":"LARGE","REV_AT_EPOCH":"3479","ECCENTRICITY":"0.00008450","ELEMENT_SET_NO":"999","CENTER_NAME":"EARTH","DECAY_DATE":null,"EPHEMERIS_TYPE":"0","EPOCH":"2021-09-02T18:24:54.751104","MEAN_ANOMALY":"301.0305","APOAPSIS":"547.823","PERIAPSIS":"546.653","SEMIMAJOR_AXIS":"6925.373","CLASSIFICATION_TYPE":"U","TIME_SYSTEM":"UTC"},{"TLE_LINE2":"2 47370  53.0748 224.3188 0001256  54.0784 306.0322 15.06394794 35068","OBJECT_TYPE":"PAYLOAD","INCLINATION":"53.0748","FILE":"3107724","ARG_OF_PERICENTER":"54.0784","BSTAR":"-0.00003180900000","REF_FRAME":"TEME","MEAN_MOTION_DDOT":"0.0000000000000","SITE":"AFETR","MEAN_ELEMENT_THEORY":"SGP4","TLE_LINE1":"1 47370U 21005X   21245.65856783 -.00000755  00000-0 -31809-4 0  9995","NORAD_CAT_ID":"47370","MEAN_MOTION_DOT":"-0.00000755","PERIOD":"95.592","MEAN_MOTION":"15.06394794","COUNTRY_CODE":"US","OBJECT_NAME":"STARLINK-2086","RA_OF_ASC_NODE":"224.3188","LAUNCH_DATE":"2021-01-20","RCS_SIZE":"LARGE","GP_ID":"183988740","OBJECT_ID":"2021-005X","REV_AT_EPOCH":"3506","ECCENTRICITY":"0.00012560","CENTER_NAME":"EARTH","ELEMENT_SET_NO":"999","MEAN_ANOMALY":"306.0322","EPOCH":"2021-09-02T15:48:20.260512","DECAY_DATE":null,"EPHEMERIS_TYPE":"0","PERIAPSIS":"546.360","CLASSIFICATION_TYPE":"U","APOAPSIS":"548.099","SEMIMAJOR_AXIS":"6925.365","TIME_SYSTEM":"UTC"}];
